{"fetched_at":"2026-07-10T07:59:21.081Z","source":"https://celestrak.org/NORAD/elements/gp.php?NAME=SPACEMOBILE&FORMAT=JSON","constellation":"ast-spacemobile","records":[{"OBJECT_NAME":"SPACEMOBILE-003","OBJECT_ID":"2024-163A","EPOCH":"2026-07-09T04:00:35.094240","CLASSIFICATION_TYPE":"U","MEAN_MOTION":15.20787211,"ECCENTRICITY":0.00054559,"INCLINATION":52.9653,"RA_OF_ASC_NODE":208.3642,"ARG_OF_PERICENTER":177.5789,"MEAN_ANOMALY":182.5233,"EPHEMERIS_TYPE":0,"NORAD_CAT_ID":61045,"ELEMENT_SET_NO":999,"REV_AT_EPOCH":10111,"BSTAR":0.000036598881,"MEAN_MOTION_DOT":0.0000049,"MEAN_MOTION_DDOT":0},{"OBJECT_NAME":"SPACEMOBILE-005","OBJECT_ID":"2024-163B","EPOCH":"2026-07-09T17:48:29.962080","CLASSIFICATION_TYPE":"U","MEAN_MOTION":15.20763652,"ECCENTRICITY":0.0008751,"INCLINATION":52.9802,"RA_OF_ASC_NODE":205.6616,"ARG_OF_PERICENTER":178.6787,"MEAN_ANOMALY":181.4232,"EPHEMERIS_TYPE":0,"NORAD_CAT_ID":61046,"ELEMENT_SET_NO":999,"REV_AT_EPOCH":10119,"BSTAR":0.00021851,"MEAN_MOTION_DOT":0.00004552,"MEAN_MOTION_DDOT":0},{"OBJECT_NAME":"SPACEMOBILE-001","OBJECT_ID":"2024-163C","EPOCH":"2026-07-09T17:46:15.724128","CLASSIFICATION_TYPE":"U","MEAN_MOTION":15.20815426,"ECCENTRICITY":0.0007489,"INCLINATION":52.9743,"RA_OF_ASC_NODE":205.3844,"ARG_OF_PERICENTER":177.9514,"MEAN_ANOMALY":182.1512,"EPHEMERIS_TYPE":0,"NORAD_CAT_ID":61047,"ELEMENT_SET_NO":999,"REV_AT_EPOCH":10119,"BSTAR":0.000046335,"MEAN_MOTION_DOT":0.00000707,"MEAN_MOTION_DDOT":0},{"OBJECT_NAME":"SPACEMOBILE-002","OBJECT_ID":"2024-163D","EPOCH":"2026-07-09T06:20:47.253120","CLASSIFICATION_TYPE":"U","MEAN_MOTION":15.20861316,"ECCENTRICITY":0.00066401,"INCLINATION":52.9763,"RA_OF_ASC_NODE":207.6126,"ARG_OF_PERICENTER":175.9238,"MEAN_ANOMALY":184.1811,"EPHEMERIS_TYPE":0,"NORAD_CAT_ID":61048,"ELEMENT_SET_NO":999,"REV_AT_EPOCH":10112,"BSTAR":0.00029469552,"MEAN_MOTION_DOT":0.00006272,"MEAN_MOTION_DDOT":0},{"OBJECT_NAME":"SPACEMOBILE-004","OBJECT_ID":"2024-163E","EPOCH":"2026-07-09T13:48:46.986048","CLASSIFICATION_TYPE":"U","MEAN_MOTION":15.20814564,"ECCENTRICITY":0.0008114,"INCLINATION":52.9654,"RA_OF_ASC_NODE":205.9666,"ARG_OF_PERICENTER":207.5207,"MEAN_ANOMALY":152.5359,"EPHEMERIS_TYPE":0,"NORAD_CAT_ID":61049,"ELEMENT_SET_NO":999,"REV_AT_EPOCH":10117,"BSTAR":-0.00061665,"MEAN_MOTION_DOT":-0.00014088,"MEAN_MOTION_DDOT":0},{"OBJECT_NAME":"SPACEMOBILE-001 DEB","OBJECT_ID":"2024-163F","EPOCH":"2026-07-09T15:30:21.695616","CLASSIFICATION_TYPE":"U","MEAN_MOTION":15.35316597,"ECCENTRICITY":0.0005938,"INCLINATION":52.9915,"RA_OF_ASC_NODE":173.6029,"ARG_OF_PERICENTER":231.3984,"MEAN_ANOMALY":128.6486,"EPHEMERIS_TYPE":0,"NORAD_CAT_ID":62369,"ELEMENT_SET_NO":999,"REV_AT_EPOCH":8995,"BSTAR":0.00019796,"MEAN_MOTION_DOT":0.00006514,"MEAN_MOTION_DDOT":0},{"OBJECT_NAME":"SPACEMOBILE-002 DEB","OBJECT_ID":"2024-163G","EPOCH":"2026-07-08T10:09:25.534080","CLASSIFICATION_TYPE":"U","MEAN_MOTION":15.43630312,"ECCENTRICITY":0.00044738,"INCLINATION":52.9406,"RA_OF_ASC_NODE":163.9171,"ARG_OF_PERICENTER":260.5662,"MEAN_ANOMALY":99.4836,"EPHEMERIS_TYPE":0,"NORAD_CAT_ID":62370,"ELEMENT_SET_NO":999,"REV_AT_EPOCH":10164,"BSTAR":0.00031715309,"MEAN_MOTION_DOT":0.00014113,"MEAN_MOTION_DDOT":0},{"OBJECT_NAME":"SPACEMOBILE-003 DEB","OBJECT_ID":"2024-163H","EPOCH":"2026-07-08T15:24:03.686112","CLASSIFICATION_TYPE":"U","MEAN_MOTION":15.41385961,"ECCENTRICITY":0.00056757,"INCLINATION":52.9682,"RA_OF_ASC_NODE":169.6526,"ARG_OF_PERICENTER":212.5674,"MEAN_ANOMALY":147.498,"EPHEMERIS_TYPE":0,"NORAD_CAT_ID":62371,"ELEMENT_SET_NO":999,"REV_AT_EPOCH":9519,"BSTAR":0.00034382737,"MEAN_MOTION_DOT":0.00014206,"MEAN_MOTION_DDOT":0},{"OBJECT_NAME":"SPACEMOBILE-004 DEB","OBJECT_ID":"2024-163J","EPOCH":"2026-07-09T15:07:14.770848","CLASSIFICATION_TYPE":"U","MEAN_MOTION":15.40655044,"ECCENTRICITY":0.0002839,"INCLINATION":52.9823,"RA_OF_ASC_NODE":164.5763,"ARG_OF_PERICENTER":239.1621,"MEAN_ANOMALY":120.9102,"EPHEMERIS_TYPE":0,"NORAD_CAT_ID":62372,"ELEMENT_SET_NO":999,"REV_AT_EPOCH":9841,"BSTAR":0.00024679,"MEAN_MOTION_DOT":0.00009824,"MEAN_MOTION_DDOT":0},{"OBJECT_NAME":"SPACEMOBILE-005 DEB","OBJECT_ID":"2024-163K","EPOCH":"2026-07-09T15:58:35.985792","CLASSIFICATION_TYPE":"U","MEAN_MOTION":15.34585276,"ECCENTRICITY":0.0005886,"INCLINATION":52.9724,"RA_OF_ASC_NODE":178.3929,"ARG_OF_PERICENTER":209.2911,"MEAN_ANOMALY":150.776,"EPHEMERIS_TYPE":0,"NORAD_CAT_ID":62373,"ELEMENT_SET_NO":999,"REV_AT_EPOCH":10157,"BSTAR":0.00019149,"MEAN_MOTION_DOT":0.00006137,"MEAN_MOTION_DDOT":0},{"OBJECT_NAME":"SPACEMOBILE-006","OBJECT_ID":"2025-309A","EPOCH":"2026-07-08T04:03:30.389472","CLASSIFICATION_TYPE":"U","MEAN_MOTION":15.18644437,"ECCENTRICITY":0.00106305,"INCLINATION":52.9947,"RA_OF_ASC_NODE":235.5229,"ARG_OF_PERICENTER":192.2291,"MEAN_ANOMALY":167.8446,"EPHEMERIS_TYPE":0,"NORAD_CAT_ID":67232,"ELEMENT_SET_NO":999,"REV_AT_EPOCH":2978,"BSTAR":0.000024444343,"MEAN_MOTION_DOT":0.0000019,"MEAN_MOTION_DDOT":0},{"OBJECT_NAME":"SPACEMOBILE-008","OBJECT_ID":"2026-139A","EPOCH":"2026-07-09T06:33:07.087680","CLASSIFICATION_TYPE":"U","MEAN_MOTION":15.1279693,"ECCENTRICITY":0.00047468,"INCLINATION":52.9939,"RA_OF_ASC_NODE":162.2948,"ARG_OF_PERICENTER":42.3763,"MEAN_ANOMALY":317.7594,"EPHEMERIS_TYPE":0,"NORAD_CAT_ID":69589,"ELEMENT_SET_NO":999,"REV_AT_EPOCH":332,"BSTAR":0.000043934622,"MEAN_MOTION_DOT":0.00000479,"MEAN_MOTION_DDOT":0},{"OBJECT_NAME":"SPACEMOBILE-009","OBJECT_ID":"2026-139B","EPOCH":"2026-07-08T22:39:38.121408","CLASSIFICATION_TYPE":"U","MEAN_MOTION":15.1268961,"ECCENTRICITY":0.00049803,"INCLINATION":52.9929,"RA_OF_ASC_NODE":163.7993,"ARG_OF_PERICENTER":36.9056,"MEAN_ANOMALY":323.2277,"EPHEMERIS_TYPE":0,"NORAD_CAT_ID":69590,"ELEMENT_SET_NO":999,"REV_AT_EPOCH":327,"BSTAR":0.000042785832,"MEAN_MOTION_DOT":0.00000456,"MEAN_MOTION_DDOT":0},{"OBJECT_NAME":"SPACEMOBILE-010","OBJECT_ID":"2026-139C","EPOCH":"2026-07-09T14:34:37.931808","CLASSIFICATION_TYPE":"U","MEAN_MOTION":15.12521494,"ECCENTRICITY":0.0004902,"INCLINATION":52.9935,"RA_OF_ASC_NODE":160.8181,"ARG_OF_PERICENTER":29.8087,"MEAN_ANOMALY":330.3182,"EPHEMERIS_TYPE":0,"NORAD_CAT_ID":69591,"ELEMENT_SET_NO":999,"REV_AT_EPOCH":338,"BSTAR":0.000033614,"MEAN_MOTION_DOT":0.00000292,"MEAN_MOTION_DDOT":0}]}
